{
  "type": "Feature",
  "properties": {
    "LC_PLY_PID": "lcpbxLrKR4cgNQy",
    "LOC_PID": "loc7884c251174b",
    "DT_CREATE": "2023-03-21",
    "LOC_NAME": "Panania",
    "LOC_CLASS": "Gazetted Locality",
    "STATE": "NSW"
  },
  "geometry": {
    "type": "Polygon",
    "coordinates": [
      [
        [
          151.00190307058668,
          -33.94318243309574
        ],
        [
          151.00191931258402,
          -33.943184907097255
        ],
        [
          151.00198660557297,
          -33.94319515210357
        ],
        [
          151.0020701315593,
          -33.94320786311138
        ],
        [
          151.00207823555795,
          -33.94320910011214
        ],
        [
          151.00215364954562,
          -33.94322057411921
        ],
        [
          151.00215770154492,
          -33.94322119311958
        ],
        [
          151.0022371665319,
          -33.94323328512702
        ],
        [
          151.0022392825327,
          -33.94322492212717
        ],
        [
          151.00239984550637,
          -33.943249322142194
        ],
        [
          151.00248062849315,
          -33.94326160214977
        ],
        [
          151.00256039848009,
          -33.94327372215723
        ],
        [
          151.00272095245376,
          -33.943298131172256
        ],
        [
          151.00288151542742,
          -33.9433225311873
        ],
        [
          151.00304206940112,
          -33.943346940202325
        ],
        [
          151.00320263237478,
          -33.94337133921737
        ],
        [
          151.00328941236057,
          -33.943384534225494
        ],
        [
          151.00336315034846,
          -33.94339573923239
        ],
        [
          151.00352373032214,
          -33.94342014824744
        ],
        [
          151.00368425729587,
          -33.94344454826246
        ],
        [
          151.00376468228265,
          -33.94345676627
        ],
        [
          151.00384481126954,
          -33.9434689572775
        ],
        [
          151.00392524525637,
          -33.943481175285044
        ],
        [
          151.0040055352432,
          -33.94349337529255
        ],
        [
          151.0041677122166,
          -33.94351801730774
        ],
        [
          151.00429178219625,
          -33.94353687731935
        ],
        [
          151.00432988819003,
          -33.943542668322934
        ],
        [
          151.00441584417595,
          -33.943555729330974
        ],
        [
          151.00449206416343,
          -33.943567319338115
        ],
        [
          151.00457349315008,
          -33.943579698345744
        ],
        [
          151.0045942361467,
          -33.94358285434769
        ],
        [
          151.00460588015207,
          -33.9435301103484
        ],
        [
          151.00480052412016,
          -33.94355954736662
        ],
        [
          151.0049950150883,
          -33.94358895838482
        ],
        [
          151.00502241810094,
          -33.94346454738651
        ],
        [
          151.00504753511254,
          -33.943350498388014
        ],
        [
          151.00513657409792,
          -33.94336438339637
        ],
        [
          151.00526113807746,
          -33.943383817408034
        ],
        [
          151.00519414104636,
          -33.94368923840396
        ],
        [
          151.00535625501973,
          -33.943713925419154
        ],
        [
          151.00543734300646,
          -33.943726277426734
        ],
        [
          151.00551833199322,
          -33.94373861243432
        ],
        [
          151.0055994209799,
          -33.943750964441925
        ],
        [
          151.0056804999666,
          -33.94376330744952
        ],
        [
          151.00575433595603,
          -33.94376287745635
        ],
        [
          151.00584812594266,
          -33.94376233046502
        ],
        [
          151.00593352592867,
          -33.943775337473035
        ],
        [
          151.00594866592618,
          -33.94377764147445
        ],
        [
          151.006016944915,
          -33.94378804848084
        ],
        [
          151.00618542288734,
          -33.94381369449662
        ],
        [
          151.00621702088173,
          -33.9438215644996
        ],
        [
          151.00635857985668,
          -33.943856829512946
        ],
        [
          151.00651918783038,
          -33.943881238528
        ],
        [
          151.00652565982932,
          -33.94388222452859
        ],
        [
          151.00648287480954,
          -33.944076805525995
        ],
        [
          151.00646324280044,
          -33.944166068524815
        ],
        [
          151.00643095478551,
          -33.94431291652285
        ],
        [
          151.00641781377945,
          -33.94437268852205
        ],
        [
          151.00640123977178,
          -33.944448057521036
        ],
        [
          151.0063880977657,
          -33.944507829520234
        ],
        [
          151.00637152375805,
          -33.94458319851925
        ],
        [
          151.00636688075588,
          -33.94460432651896
        ],
        [
          151.00635944975244,
          -33.9446380935185
        ],
        [
          151.00635837375197,
          -33.94464302351844
        ],
        [
          151.0063418077443,
          -33.94471833951744
        ],
        [
          151.00632863973817,
          -33.944778209516635
        ],
        [
          151.00632857773817,
          -33.94477849651663
        ],
        [
          151.00632664973728,
          -33.9447872905165
        ],
        [
          151.00631209273055,
          -33.944853480515626
        ],
        [
          151.0063079067286,
          -33.94487251951537
        ],
        [
          151.0062823767168,
          -33.944988621513815
        ],
        [
          151.0062484927011,
          -33.945142721511765
        ],
        [
          151.00657453064764,
          -33.9451924625423
        ],
        [
          151.00656454464678,
          -33.945209699541486
        ],
        [
          151.0065563426461,
          -33.94522385354083
        ],
        [
          151.00602018973393,
          -33.94514233549062
        ],
        [
          151.00598283672787,
          -33.94522838048776
        ],
        [
          151.00597469772654,
          -33.945247151487145
        ],
        [
          151.00594953572244,
          -33.94530512148522
        ],
        [
          151.0059292047191,
          -33.945351958483656
        ],
        [
          151.00589040871276,
          -33.945441347480696
        ],
        [
          151.00588358771165,
          -33.94545706948018
        ],
        [
          151.00585978770067,
          -33.94556485247873
        ],
        [
          151.00585733169956,
          -33.945575977478576
        ],
        [
          151.00583592568972,
          -33.945672958477275
        ],
        [
          151.00582749968584,
          -33.94571110047676
        ],
        [
          151.00581205467876,
          -33.94578105447581
        ],
        [
          151.00579766767208,
          -33.94584622347494
        ],
        [
          151.00578819266775,
          -33.94588915147436
        ],
        [
          151.0057642586567,
          -33.945997561472915
        ],
        [
          151.0057128686652,
          -33.945989673468084
        ],
        [
          151.00570332166077,
          -33.946032897467504
        ],
        [
          151.0056890506542,
          -33.94609753746664
        ],
        [
          151.00565573163888,
          -33.94624847246461
        ],
        [
          151.00563844063095,
          -33.94632679146356
        ],
        [
          151.00562249362358,
          -33.94639903146258
        ],
        [
          151.0056296826224,
          -33.94640013446327
        ],
        [
          151.0057415176041,
          -33.94641720147374
        ],
        [
          151.00587529558214,
          -33.94643762148626
        ],
        [
          151.00600908256015,
          -33.94645804149881
        ],
        [
          151.00614286153822,
          -33.94647845251132
        ],
        [
          151.0062766395163,
          -33.946498881523844
        ],
        [
          151.00620370848247,
          -33.94683134651943
        ],
        [
          151.00618452548375,
          -33.94684239051774
        ],
        [
          151.0061531074768,
          -33.94692827451542
        ],
        [
          151.00612061246963,
          -33.947017080513035
        ],
        [
          151.00585641751297,
          -33.94697678748829
        ],
        [
          151.00582428149775,
          -33.94712552648636
        ],
        [
          151.0058038254881,
          -33.94722017748512
        ],
        [
          151.00579506748392,
          -33.94726074848461
        ],
        [
          151.00576871347144,
          -33.947382711483016
        ],
        [
          151.0057658544701,
          -33.94739596048283
        ],
        [
          151.00573371845493,
          -33.94754470948091
        ],
        [
          151.00573043745354,
          -33.947558549480696
        ],
        [
          151.00571739544733,
          -33.94761901147991
        ],
        [
          151.0057158264466,
          -33.94762615547982
        ],
        [
          151.00570106243975,
          -33.94769336747892
        ],
        [
          151.00568849543393,
          -33.94775065647816
        ],
        [
          151.0056862364329,
          -33.947760947478024
        ],
        [
          151.00567140942601,
          -33.94782848147712
        ],
        [
          151.00564169441228,
          -33.947963667475314
        ],
        [
          151.0056249404047,
          -33.94803862447429
        ],
        [
          151.0056087153971,
          -33.94811269347331
        ],
        [
          151.00559386239024,
          -33.94818029147239
        ],
        [
          151.00557901838337,
          -33.9482478884715
        ],
        [
          151.00554932936961,
          -33.9483830384697
        ],
        [
          151.00554636236825,
          -33.948396556469525
        ],
        [
          151.00551667335452,
          -33.94853170546771
        ],
        [
          151.00551370635316,
          -33.94854522346754
        ],
        [
          151.00548401733937,
          -33.94868036446574
        ],
        [
          151.0054715483336,
          -33.94873712446497
        ],
        [
          151.00538864134361,
          -33.948751431457396
        ],
        [
          151.0051975203666,
          -33.94878496543994
        ],
        [
          151.00501164238895,
          -33.94881758542296
        ],
        [
          151.004964304367,
          -33.94903307042008
        ],
        [
          151.00496369436667,
          -33.94903643142005
        ],
        [
          151.0049633273663,
          -33.94903983842004
        ],
        [
          151.00496322836585,
          -33.94904327142006
        ],
        [
          151.00496337136533,
          -33.94904670442009
        ],
        [
          151.00496378436483,
          -33.94905011042015
        ],
        [
          151.00496444736424,
          -33.949053499420245
        ],
        [
          151.00496536136373,
          -33.94905684242035
        ],
        [
          151.0049665183631,
          -33.94906013242048
        ],
        [
          151.00496792536248,
          -33.949063359420634
        ],
        [
          151.00496957536183,
          -33.9490664964208
        ],
        [
          151.00497144836112,
          -33.949069544421
        ],
        [
          151.0049735553604,
          -33.94907250242122
        ],
        [
          151.00497587635977,
          -33.949075335421455
        ],
        [
          151.004978395359,
          -33.9490780424217
        ],
        [
          151.00498112035828,
          -33.94908061542198
        ],
        [
          151.00498403335754,
          -33.949083035422255
        ],
        [
          151.00498712635678,
          -33.949085312422554
        ],
        [
          151.00499037135606,
          -33.94908740942288
        ],
        [
          151.00499377735528,
          -33.9490893374232
        ],
        [
          151.00499731835455,
          -33.94909109442355
        ],
        [
          151.0050009843538,
          -33.9490926444239
        ],
        [
          151.00500475835312,
          -33.949094016424255
        ],
        [
          151.00500862235242,
          -33.94909519042462
        ],
        [
          151.00501257535169,
          -33.949096158425
        ],
        [
          151.00501659135102,
          -33.94909691142537
        ],
        [
          151.00502065135035,
          -33.949097467425744
        ],
        [
          151.0050247483497,
          -33.94909780842614
        ],
        [
          151.00502886234912,
          -33.94909792442651
        ],
        [
          151.00503297734852,
          -33.94909782642691
        ],
        [
          151.005037091348,
          -33.949097530427274
        ],
        [
          151.00500597734,
          -33.94919088142504
        ],
        [
          151.00497411033183,
          -33.94928650842276
        ],
        [
          151.00494464633567,
          -33.94928944942006
        ],
        [
          151.00491004533578,
          -33.94932613841711
        ],
        [
          151.00495947228282,
          -33.94966990742408
        ],
        [
          151.0049838452752,
          -33.94970066242657
        ],
        [
          151.00503295026886,
          -33.949695759431066
        ],
        [
          151.00517372025047,
          -33.949681703444
        ],
        [
          151.00530794723295,
          -33.94966829345635
        ],
        [
          151.00545527021376,
          -33.94965358346987
        ],
        [
          151.0055862251967,
          -33.949640505481916
        ],
        [
          151.00558806219473,
          -33.949653314482184
        ],
        [
          151.00559960818237,
          -33.94973360548381
        ],
        [
          151.00560583817568,
          -33.94977691948468
        ],
        [
          151.00562338915688,
          -33.94989901748716
        ],
        [
          151.0056254511547,
          -33.94991334248745
        ],
        [
          151.00564506413366,
          -33.95004975549022
        ],
        [
          151.00564519913354,
          -33.95005067049025
        ],
        [
          151.00566185411571,
          -33.9501665024926
        ],
        [
          151.00566467711266,
          -33.950186169493
        ],
        [
          151.00568303609302,
          -33.950313825495584
        ],
        [
          151.00568507909082,
          -33.95032804249587
        ],
        [
          151.00570421707033,
          -33.95046115749858
        ],
        [
          151.005705481069,
          -33.95046992449876
        ],
        [
          151.00571568205808,
          -33.9505408565002
        ],
        [
          151.00572148205185,
          -33.950581203501024
        ],
        [
          151.00572587404713,
          -33.95061180650164
        ],
        [
          151.00573607503622,
          -33.95068272950308
        ],
        [
          151.0057462760253,
          -33.95075367050451
        ],
        [
          151.0057666340035,
          -33.950895247507404
        ],
        [
          151.00537382305467,
          -33.95093477847129
        ],
        [
          151.00536412404665,
          -33.9510052894709
        ],
        [
          151.00535438903862,
          -33.95107616747049
        ],
        [
          151.00578650698228,
          -33.951033005510205
        ],
        [
          151.00580596796144,
          -33.951168227512944
        ],
        [
          151.00582599294,
          -33.95130743851578
        ],
        [
          151.00584602791855,
          -33.95144664851859
        ],
        [
          151.00585883690488,
          -33.95153565252042
        ],
        [
          151.00585981390384,
          -33.95154242852055
        ],
        [
          151.00586606189714,
          -33.95158586852144
        ],
        [
          151.0058860878757,
          -33.95172507852426
        ],
        [
          151.00590769085258,
          -33.95187520752731
        ],
        [
          151.00592929382944,
          -33.95202533653037
        ],
        [
          151.00595089680633,
          -33.952175465533415
        ],
        [
          151.0059724997832,
          -33.95232558453646
        ],
        [
          151.0059941037601,
          -33.95247571353952
        ],
        [
          151.00600466274878,
          -33.95254907454101
        ],
        [
          151.00600980874327,
          -33.952584850541726
        ],
        [
          151.00594950774868,
          -33.95260972553633
        ],
        [
          151.0058768277551,
          -33.952639700529815
        ],
        [
          151.00564146977598,
          -33.95273679850869
        ],
        [
          151.0056299957454,
          -33.95297840450932
        ],
        [
          151.00566760873622,
          -33.953006596513
        ],
        [
          151.00566741072393,
          -33.953099122513635
        ],
        [
          151.005657998713,
          -33.953191317513415
        ],
        [
          151.00561800170664,
          -33.953282184510336
        ],
        [
          151.00562895569104,
          -33.95338718051208
        ],
        [
          151.0066834245565,
          -33.95325957760883
        ],
        [
          151.0068156875396,
          -33.95324399862096
        ],
        [
          151.00990160014632,
          -33.952867448904065
        ],
        [
          151.0107673860359,
          -33.952762695983516
        ],
        [
          151.01078550201032,
          -33.9529347149864
        ],
        [
          151.01077770400576,
          -33.95297728498596
        ],
        [
          151.0107654409986,
          -33.95304427198533
        ],
        [
          151.01076042999568,
          -33.95307160398503
        ],
        [
          151.01075684399356,
          -33.95309120798483
        ],
        [
          151.0107556519929,
          -33.95309768898477
        ],
        [
          151.01071540396939,
          -33.95331744098258
        ],
        [
          151.0107036609625,
          -33.95338155998195
        ],
        [
          151.0106853389518,
          -33.953481597980954
        ],
        [
          151.01068057894904,
          -33.953507584980684
        ],
        [
          151.01066883594214,
          -33.95357171298004
        ],
        [
          151.01064575392869,
          -33.953697728978796
        ],
        [
          151.01063649392324,
          -33.95374826797829
        ],
        [
          151.01060962890756,
          -33.95389495397682
        ],
        [
          151.01059114489672,
          -33.95399588897582
        ],
        [
          151.01058276389188,
          -33.95404164097536
        ],
        [
          151.0105563198764,
          -33.95418603297392
        ],
        [
          151.01073557284758,
          -33.95420897099069
        ],
        [
          151.01076814784233,
          -33.95421313999373
        ],
        [
          151.01091483481875,
          -33.95423190100745
        ],
        [
          151.01096701381036,
          -33.954238579012326
        ],
        [
          151.01109411378994,
          -33.954254741024215
        ],
        [
          151.01113282978375,
          -33.95425967202783
        ],
        [
          151.01127339376117,
          -33.95427754604098
        ],
        [
          151.0112187577292,
          -33.95457582203801
        ],
        [
          151.01142085069677,
          -33.9546015850569
        ],
        [
          151.01153796567792,
          -33.95461651006785
        ],
        [
          151.01151258866986,
          -33.954704330066114
        ],
        [
          151.01148656566156,
          -33.95479450706433
        ],
        [
          151.01138224260094,
          -33.95536146105864
        ],
        [
          151.01136226258933,
          -33.95547010505754
        ],
        [
          151.0113422725777,
          -33.95557874805647
        ],
        [
          151.01132229156607,
          -33.955687392055374
        ],
        [
          151.0113023025545,
          -33.95579603505427
        ],
        [
          151.01128231254285,
          -33.95590468705319
        ],
        [
          151.01126233153127,
          -33.95601333105209
        ],
        [
          151.01124234151962,
          -33.95612196505102
        ],
        [
          151.01122261250825,
          -33.95622851104992
        ],
        [
          151.0112077234995,
          -33.95631018204911
        ],
        [
          151.01119826649403,
          -33.956361617048586
        ],
        [
          151.01117377647978,
          -33.95649470604726
        ],
        [
          151.01116509947474,
          -33.95654187404679
        ],
        [
          151.01114942146563,
          -33.95662707704593
        ],
        [
          151.01112542445168,
          -33.95675753804462
        ],
        [
          151.01111192544383,
          -33.9568309350439
        ],
        [
          151.0110883494301,
          -33.95695912004259
        ],
        [
          151.01107050241973,
          -33.95705614604162
        ],
        [
          151.01105646441158,
          -33.95713243004086
        ],
        [
          151.01105451041047,
          -33.95714306104075
        ],
        [
          151.0110418534031,
          -33.95721186004007
        ],
        [
          151.01102648039418,
          -33.95729540403922
        ],
        [
          151.01114475137254,
          -33.95732992405042
        ],
        [
          151.01115184135102,
          -33.957483666052156
        ],
        [
          151.0111154653298,
          -33.957681958050166
        ],
        [
          151.01139914828417,
          -33.957718647076696
        ],
        [
          151.01139090227335,
          -33.95780830507656
        ],
        [
          151.01138226026256,
          -33.95789868907639
        ],
        [
          151.01140987825443,
          -33.957930063079175
        ],
        [
          151.01151838723692,
          -33.957944181089324
        ],
        [
          151.0113873341617,
          -33.958649368082106
        ],
        [
          151.01136108714604,
          -33.9587953470807
        ],
        [
          151.01133865913195,
          -33.95892478707953
        ],
        [
          151.0111971630491,
          -33.959698629071845
        ],
        [
          151.01117152603697,
          -33.9598172760703
        ],
        [
          151.01114960002434,
          -33.95993564606909
        ],
        [
          151.0110723839755,
          -33.960385189065086
        ],
        [
          151.01099259596316,
          -33.96056347405894
        ],
        [
          151.01086632895968,
          -33.96072577604839
        ],
        [
          151.01069177396485,
          -33.96087523203327
        ],
        [
          151.01056506797426,
          -33.96094134102201
        ],
        [
          151.01037529198695,
          -33.96105022700519
        ],
        [
          151.01001665201258,
          -33.961244789973335
        ],
        [
          151.00983511302277,
          -33.96136416295735
        ],
        [
          151.0096771320225,
          -33.96153640594393
        ],
        [
          151.0095574990053,
          -33.961794505934655
        ],
        [
          151.00953598499103,
          -33.96192441193358
        ],
        [
          151.00951219497676,
          -33.9620569449323
        ],
        [
          151.00935367590006,
          -33.96280292692285
        ],
        [
          151.00933750488875,
          -33.96290522392205
        ],
        [
          151.00932548387846,
          -33.96299533892159
        ],
        [
          151.00913906878725,
          -33.9638800749105
        ],
        [
          151.00903691580717,
          -33.96384081190077
        ],
        [
          151.0089913158101,
          -33.963867936896726
        ],
        [
          151.00896990079926,
          -33.963972636895484
        ],
        [
          151.00895467979151,
          -33.9640469928946
        ],
        [
          151.00882803681205,
          -33.96402953088275
        ],
        [
          151.00871024083116,
          -33.96401328787172
        ],
        [
          151.00858352585172,
          -33.96399581785987
        ],
        [
          151.008547696833,
          -33.964174684857795
        ],
        [
          151.00851187681428,
          -33.96435347985573
        ],
        [
          151.00845313582383,
          -33.96434537685023
        ],
        [
          151.0083750508365,
          -33.96433461084293
        ],
        [
          151.00830671884756,
          -33.964325189836536
        ],
        [
          151.00823839485867,
          -33.96431576883015
        ],
        [
          151.00810174788083,
          -33.964296917817364
        ],
        [
          151.00796510090296,
          -33.96427808380457
        ],
        [
          151.00788701591563,
          -33.964267309797265
        ],
        [
          151.00780242292933,
          -33.96425564678936
        ],
        [
          151.00763974495575,
          -33.96423321977414
        ],
        [
          151.00750959697683,
          -33.96421526476196
        ],
        [
          151.00747706698212,
          -33.96421078275892
        ],
        [
          151.00737118399928,
          -33.96419617974902
        ],
        [
          151.0073143880085,
          -33.96418835474368
        ],
        [
          151.00715171003483,
          -33.96416591772848
        ],
        [
          151.00698903206126,
          -33.96414348071326
        ],
        [
          151.00705420009524,
          -33.96381835771702
        ],
        [
          151.00696508010967,
          -33.963806022708674
        ],
        [
          151.00684037312996,
          -33.963788776697015
        ],
        [
          151.00680777113968,
          -33.96375084069373
        ],
        [
          151.00664391816628,
          -33.96372823367841
        ],
        [
          151.00645648219665,
          -33.963702390660856
        ],
        [
          151.00642959018262,
          -33.963836571659314
        ],
        [
          151.0064027071686,
          -33.963970708657754
        ],
        [
          151.00638942216167,
          -33.964036961656994
        ],
        [
          151.00638478815924,
          -33.96406011565672
        ],
        [
          151.0063758241546,
          -33.96410484565621
        ],
        [
          151.00634894114054,
          -33.96423898265466
        ],
        [
          151.00637781413587,
          -33.96424296265735
        ],
        [
          151.00634847512057,
          -33.96438932665567
        ],
        [
          151.00671001906196,
          -33.96443918468948
        ],
        [
          151.00670349305852,
          -33.96447173268911
        ],
        [
          151.0061991801403,
          -33.964402181641944
        ],
        [
          151.0061782761294,
          -33.96450648664073
        ],
        [
          151.0061633331216,
          -33.96458104863988
        ],
        [
          151.0061274861029,
          -33.96475991563779
        ],
        [
          151.00610797110608,
          -33.96475721763597
        ],
        [
          151.005911113138,
          -33.96473006561755
        ],
        [
          151.00589808814013,
          -33.96472828161633
        ],
        [
          151.00570910115982,
          -33.964784360599225
        ],
        [
          151.0057044131603,
          -33.9647857405988
        ],
        [
          151.00552666617884,
          -33.964838484582714
        ],
        [
          151.00550490116748,
          -33.96494702958145
        ],
        [
          151.00547991015446,
          -33.96507167358003
        ],
        [
          151.00545058013918,
          -33.96521801957832
        ],
        [
          151.00543155812923,
          -33.965312885577234
        ],
        [
          151.00541091411847,
          -33.96541588157604
        ],
        [
          151.00539624911082,
          -33.96548906357519
        ],
        [
          151.00535877109127,
          -33.96567607057303
        ],
        [
          151.0053413890822,
          -33.96576277857202
        ],
        [
          151.00530715606433,
          -33.96593354257005
        ],
        [
          151.0052856960678,
          -33.96593058456805
        ],
        [
          151.0050534041055,
          -33.96589853854632
        ],
        [
          151.00465646116987,
          -33.965843804509184
        ],
        [
          151.004691259188,
          -33.96567032451118
        ],
        [
          151.00430734125027,
          -33.965617374475286
        ],
        [
          151.0042617412532,
          -33.96564452647124
        ],
        [
          151.00423201623838,
          -33.965787824469494
        ],
        [
          151.00419512921997,
          -33.96596562446732
        ],
        [
          151.00406834323954,
          -33.96595561145551
        ],
        [
          151.00397820125343,
          -33.965948494447126
        ],
        [
          151.00390908921747,
          -33.966292693443116
        ],
        [
          151.00368087525453,
          -33.96626089842178
        ],
        [
          151.0034883022858,
          -33.96623407840377
        ],
        [
          151.00345479429123,
          -33.96622941640063
        ],
        [
          151.00334199230957,
          -33.96621370239008
        ],
        [
          151.00322898332792,
          -33.9661979263795
        ],
        [
          151.00317670533641,
          -33.966190629374616
        ],
        [
          151.0030029293646,
          -33.966166373358355
        ],
        [
          151.00277685840135,
          -33.9661348193372
        ],
        [
          151.00259797243038,
          -33.966109837320474
        ],
        [
          151.00250850344491,
          -33.9660973503121
        ],
        [
          151.0024245014586,
          -33.96608562530423
        ],
        [
          151.00241907845947,
          -33.96608487230373
        ],
        [
          151.0023302274739,
          -33.966072466295415
        ],
        [
          151.00224019348852,
          -33.966059898287
        ],
        [
          151.00206129951755,
          -33.966034934270255
        ],
        [
          151.00188241454657,
          -33.96600996025353
        ],
        [
          151.00170258757583,
          -33.9659848522367
        ],
        [
          151.00176789960977,
          -33.96565962124047
        ],
        [
          151.00168304662827,
          -33.96561261423229
        ],
        [
          151.00156980465286,
          -33.96554991122137
        ],
        [
          151.00149820961548,
          -33.96590769021725
        ],
        [
          151.00142660457806,
          -33.96626546021313
        ],
        [
          151.00135500954067,
          -33.966623240208996
        ],
        [
          151.0011605715722,
          -33.96659642019081
        ],
        [
          150.99984130778614,
          -33.96641447806741
        ],
        [
          150.99984549378823,
          -33.966394542067654
        ],
        [
          150.99962488982368,
          -33.96636648404705
        ],
        [
          150.9992988788761,
          -33.96632500801658
        ],
        [
          150.9992010548918,
          -33.96631256600743
        ],
        [
          150.99910324890755,
          -33.9663001239983
        ],
        [
          150.99890763693898,
          -33.966275239980014
        ],
        [
          150.99871203397043,
          -33.96625035596173
        ],
        [
          150.99851670000183,
          -33.96622550794349
        ],
        [
          150.998291615038,
          -33.966196867922456
        ],
        [
          150.99813051406392,
          -33.96617637590739
        ],
        [
          150.99796750409013,
          -33.966155633892164
        ],
        [
          150.99794649307796,
          -33.96626970889101
        ],
        [
          150.99792534706566,
          -33.96638454688987
        ],
        [
          150.9978667490317,
          -33.966702642886666
        ],
        [
          150.9978467320201,
          -33.966811285885576
        ],
        [
          150.99783359101244,
          -33.96688263888487
        ],
        [
          150.99782682300852,
          -33.96691938288449
        ],
        [
          150.99779968901288,
          -33.96691593188195
        ],
        [
          150.99771098202714,
          -33.966904645873655
        ],
        [
          150.99753317205574,
          -33.966882011857045
        ],
        [
          150.99751920704762,
          -33.96695816085628
        ],
        [
          150.9975059040398,
          -33.967030750855564
        ],
        [
          150.99748042802497,
          -33.967169674854176
        ],
        [
          150.99747836702377,
          -33.967180915854065
        ],
        [
          150.99735819604257,
          -33.96716956684285
        ],
        [
          150.997157232074,
          -33.967150599824144
        ],
        [
          150.99712386808363,
          -33.96711426882078
        ],
        [
          150.99714541809618,
          -33.96699672382197
        ],
        [
          150.9971608541052,
          -33.96691250682279
        ],
        [
          150.99717481011336,
          -33.966836393823556
        ],
        [
          150.99707149213026,
          -33.96682091281388
        ],
        [
          150.99696102814835,
          -33.96680435680354
        ],
        [
          150.9967026151899,
          -33.9667714767794
        ],
        [
          150.99656315321232,
          -33.96675372776636
        ],
        [
          150.996472016227,
          -33.96674212875785
        ],
        [
          150.99644715921247,
          -33.9668779507565
        ],
        [
          150.99642230219794,
          -33.96701377275515
        ],
        [
          150.9963974721834,
          -33.9671494787538
        ],
        [
          150.99626709120434,
          -33.967132886741624
        ],
        [
          150.9961529622227,
          -33.96711834673095
        ],
        [
          150.99610409023055,
          -33.96711212572639
        ],
        [
          150.99610797123282,
          -33.9670909257266
        ],
        [
          150.99594496125906,
          -33.96707017471137
        ],
        [
          150.9959484392611,
          -33.96705116171156
        ],
        [
          150.99589893126907,
          -33.967044860706935
        ],
        [
          150.9957848292874,
          -33.967030338696276
        ],
        [
          150.995777371283,
          -33.96707108869586
        ],
        [
          150.9956896852971,
          -33.96705992868768
        ],
        [
          150.99568508729786,
          -33.96705934568724
        ],
        [
          150.99561437030926,
          -33.96705034568062
        ],
        [
          150.99561784831124,
          -33.96703132468082
        ],
        [
          150.99548720733227,
          -33.96701469666861
        ],
        [
          150.99548173933314,
          -33.96701399766811
        ],
        [
          150.99545484733747,
          -33.96701057266559
        ],
        [
          150.99545385233688,
          -33.96701601366554
        ],
        [
          150.9952908423631,
          -33.96699527165032
        ],
        [
          150.99528835936167,
          -33.967008851650164
        ],
        [
          150.99526222936584,
          -33.96700552664774
        ],
        [
          150.99525446636707,
          -33.967004540647
        ],
        [
          150.99520615937485,
          -33.966998390642495
        ],
        [
          150.99512535838787,
          -33.96698810963494
        ],
        [
          150.99513032439074,
          -33.966960939635214
        ],
        [
          150.99504286240483,
          -33.966949814627036
        ],
        [
          150.9950348134061,
          -33.96694879362629
        ],
        [
          150.99496732341697,
          -33.96694019661997
        ],
        [
          150.99488524942973,
          -33.96693283761234
        ],
        [
          150.99481963243994,
          -33.96692695660623
        ],
        [
          150.99480332744258,
          -33.966924886604694
        ],
        [
          150.99480432244317,
          -33.966919453604746
        ],
        [
          150.99465761746677,
          -33.96690079059104
        ],
        [
          150.9946638564704,
          -33.96686666559138
        ],
        [
          150.994517053494,
          -33.96684797557767
        ],
        [
          150.99450557050187,
          -33.96680135357628
        ],
        [
          150.99436212952492,
          -33.966783093562874
        ],
        [
          150.9943693275291,
          -33.966743840563275
        ],
        [
          150.99441757155725,
          -33.96648067656589
        ],
        [
          150.99425457058348,
          -33.96645996955066
        ],
        [
          150.99417306059655,
          -33.96644961554305
        ],
        [
          150.99409156060966,
          -33.96643926253543
        ],
        [
          150.99392855063584,
          -33.966418564520204
        ],
        [
          150.99377136767194,
          -33.966317585504946
        ],
        [
          150.993576113717,
          -33.96619008148598
        ],
        [
          150.99362773774587,
          -33.96591777448886
        ],
        [
          150.99363309774887,
          -33.96588949248916
        ],
        [
          150.99366021376406,
          -33.965746490490666
        ],
        [
          150.99367736177362,
          -33.96565606149162
        ],
        [
          150.9936926907822,
          -33.96557518849249
        ],
        [
          150.99372516680037,
          -33.965403904494295
        ],
        [
          150.9937288158024,
          -33.96538464149449
        ],
        [
          150.99435880370868,
          -33.965408270552956
        ],
        [
          150.99436131370985,
          -33.965396679553116
        ],
        [
          150.9943645947109,
          -33.965385223553334
        ],
        [
          150.99436864671185,
          -33.96537394755362
        ],
        [
          150.99437345071263,
          -33.96536286755399
        ],
        [
          150.99437899071327,
          -33.96535203955443
        ],
        [
          150.99438525671377,
          -33.96534147955493
        ],
        [
          150.9943922127141,
          -33.9653312425555
        ],
        [
          150.99392454380367,
          -33.96516415451106
        ],
        [
          150.99378027783118,
          -33.96511322049735
        ],
        [
          150.99382886285838,
          -33.96485692250005
        ],
        [
          150.99384679885551,
          -33.964859119501725
        ],
        [
          150.9940164338283,
          -33.96488001451758
        ],
        [
          150.9940441678239,
          -33.96488342052016
        ],
        [
          150.9941027568145,
          -33.964890645525635
        ],
        [
          150.9941893308006,
          -33.96490129453373
        ],
        [
          150.9943902587684,
          -33.964926035552494
        ],
        [
          150.99449926075098,
          -33.96493946356268
        ],
        [
          150.9946947647196,
          -33.964963531580935
        ],
        [
          150.9947198277342,
          -33.9648272165823
        ],
        [
          150.99472522473732,
          -33.964797850582585
        ],
        [
          150.99475491275462,
          -33.96463638258421
        ],
        [
          150.99478497877206,
          -33.96447279858585
        ],
        [
          150.99480411678317,
          -33.964368690586895
        ],
        [
          150.99481494478948,
          -33.964309824587474
        ],
        [
          150.99483461180094,
          -33.964202821588565
        ],
        [
          150.99475303081405,
          -33.96419253058093
        ],
        [
          150.99467155682711,
          -33.96418228457331
        ],
        [
          150.99463905383234,
          -33.96417817957029
        ],
        [
          150.9945085198533,
          -33.96416173955809
        ],
        [
          150.99436630687615,
          -33.96414383854479
        ],
        [
          150.9943454838795,
          -33.96414120254286
        ],
        [
          150.99419184990413,
          -33.96412186752849
        ],
        [
          150.99418135290585,
          -33.96412054052752
        ],
        [
          150.9940222869314,
          -33.96410049751266
        ],
        [
          150.99401831593198,
          -33.964100004512304
        ],
        [
          150.99393753294498,
          -33.964089875504754
        ],
        [
          150.9938527249586,
          -33.96407916349682
        ],
        [
          150.99375745497392,
          -33.96406716948792
        ],
        [
          150.9936831889858,
          -33.96405787348099
        ],
        [
          150.99359513599998,
          -33.96404675847276
        ],
        [
          150.9935070830141,
          -33.96403564346454
        ],
        [
          150.9934411610247,
          -33.96402734245837
        ],
        [
          150.99332047904406,
          -33.96401213944711
        ],
        [
          150.9933553220644,
          -33.96382200444899
        ],
        [
          150.9933574020656,
          -33.963810683449104
        ],
        [
          150.9933822680801,
          -33.96367497745046
        ],
        [
          150.99340017809052,
          -33.963577538451425
        ],
        [
          150.99340743909474,
          -33.96353806145184
        ],
        [
          150.99343216210912,
          -33.963403548453186
        ],
        [
          150.99344515911662,
          -33.96333328845389
        ],
        [
          150.99345732412363,
          -33.963267582454556
        ],
        [
          150.99353885111054,
          -33.96327784646218
        ],
        [
          150.99357541513177,
          -33.96307892646417
        ],
        [
          150.99349383414489,
          -33.963068644456534
        ],
        [
          150.9935162171578,
          -33.96294769345777
        ],
        [
          150.99351796515876,
          -33.96293829045786
        ],
        [
          150.99352901716517,
          -33.96287853645847
        ],
        [
          150.9935420871727,
          -33.96280793645918
        ],
        [
          150.9935521441785,
          -33.96275362345973
        ],
        [
          150.9935662181866,
          -33.96267758246051
        ],
        [
          150.99357526319181,
          -33.96262870146099
        ],
        [
          150.9935903402005,
          -33.96254722746183
        ],
        [
          150.99375336817434,
          -33.962567773477055
        ],
        [
          150.99377833318883,
          -33.96243196047842
        ],
        [
          150.99383962817902,
          -33.96243968748415
        ],
        [
          150.99384872718431,
          -33.962390179484636
        ],
        [
          150.99386458419352,
          -33.962303873485496
        ],
        [
          150.99388857220745,
          -33.96217337648682
        ],
        [
          150.99396358219542,
          -33.96218276149381
        ],
        [
          150.99400851018825,
          -33.96218838149801
        ],
        [
          150.99426375914732,
          -33.96222006952185
        ],
        [
          150.99428461814395,
          -33.96222266952381
        ],
        [
          150.99461844609044,
          -33.96226393055499
        ],
        [
          150.99468284307608,
          -33.962302269561214
        ],
        [
          150.99467885407623,
          -33.96230529956087
        ],
        [
          150.99492095302023,
          -33.96246464258439
        ],
        [
          150.99494536201755,
          -33.9624585385866
        ],
        [
          150.99499928000546,
          -33.96249063859182
        ],
        [
          150.99502621702115,
          -33.96234396059328
        ],
        [
          150.99504717503333,
          -33.962229885594425
        ],
        [
          150.99504896803438,
          -33.96222012359451
        ],
        [
          150.99506812404553,
          -33.96211580059557
        ],
        [
          150.99508908205775,
          -33.9620017165967
        ],
        [
          150.99511152707078,
          -33.96187949259794
        ],
        [
          150.99512005207578,
          -33.961833094598404
        ],
        [
          150.99513397308388,
          -33.96175725959915
        ],
        [
          150.9951898901164,
          -33.96145282460219
        ],
        [
          150.99520880412743,
          -33.96134983760322
        ],
        [
          150.99522061913427,
          -33.961285485603874
        ],
        [
          150.9952335271418,
          -33.961215225604576
        ],
        [
          150.9952374711441,
          -33.96119372060478
        ],
        [
          150.9952415771465,
          -33.96117140060502
        ],
        [
          150.99530462918318,
          -33.96082805360845
        ],
        [
          150.9953061441841,
          -33.96081984260853
        ],
        [
          150.99532609819568,
          -33.960711198609616
        ],
        [
          150.99534605220728,
          -33.9606025466107
        ],
        [
          150.99536499321835,
          -33.96049939761174
        ],
        [
          150.9953660062189,
          -33.96049390261179
        ],
        [
          150.99538618423065,
          -33.96038402261289
        ],
        [
          150.995409132244,
          -33.96025908261414
        ],
        [
          150.99525754226835,
          -33.96023987259998
        ],
        [
          150.99526281227142,
          -33.960210954600264
        ],
        [
          150.99528034628176,
          -33.9601148526012
        ],
        [
          150.9953031412951,
          -33.95998988560245
        ],
        [
          150.99532242330642,
          -33.959884190603496
        ],
        [
          150.9953259463085,
          -33.95986486460368
        ],
        [
          150.99534875032188,
          -33.95973986160492
        ],
        [
          150.99537159933533,
          -33.95961448260616
        ],
        [
          150.99539438634872,
          -33.9594895066074
        ],
        [
          150.9954171723621,
          -33.95936449560862
        ],
        [
          150.99542127836452,
          -33.959341986608834
        ],
        [
          150.99548561240218,
          -33.95898993561234
        ],
        [
          150.99535199542365,
          -33.95897277859986
        ],
        [
          150.99520532644726,
          -33.95895394458615
        ],
        [
          150.99523722945452,
          -33.95886492358847
        ],
        [
          150.9952682364616,
          -33.95877842159074
        ],
        [
          150.99528974045998,
          -33.95876747659265
        ],
        [
          150.99533176346796,
          -33.95866216759581
        ],
        [
          150.99537755147668,
          -33.95854743759924
        ],
        [
          150.99542333048538,
          -33.95843271660268
        ],
        [
          150.99552464150466,
          -33.958178856610274
        ],
        [
          150.99494402659803,
          -33.95810436555602
        ],
        [
          150.99496626661102,
          -33.95798294855724
        ],
        [
          150.9949886496241,
          -33.95786071555846
        ],
        [
          150.99501104163716,
          -33.957738483559666
        ],
        [
          150.99503342465025,
          -33.95761625956088
        ],
        [
          150.99505580766333,
          -33.957494035562085
        ],
        [
          150.99507819967639,
          -33.95737180256331
        ],
        [
          150.99510058268945,
          -33.95724956956453
        ],
        [
          150.99512297470253,
          -33.95712733656574
        ],
        [
          150.99514535771561,
          -33.95700509556696
        ],
        [
          150.9951677497287,
          -33.956882871568176
        ],
        [
          150.99519013374174,
          -33.9567606205694
        ],
        [
          150.99521252575485,
          -33.95663837857062
        ],
        [
          150.99523491776787,
          -33.95651614557184
        ],
        [
          150.99525730078096,
          -33.95639391357306
        ],
        [
          150.99527969279404,
          -33.95627168057427
        ],
        [
          150.99535430883762,
          -33.955864222578334
        ],
        [
          150.99519785186277,
          -33.955844277563706
        ],
        [
          150.9950413938879,
          -33.955824341549075
        ],
        [
          150.99492404690676,
          -33.95580938953812
        ],
        [
          150.99411017103756,
          -33.95570567646208
        ],
        [
          150.9938233240837,
          -33.95566912143528
        ],
        [
          150.9938481091044,
          -33.9554868294363
        ],
        [
          150.9937224161245,
          -33.955471573424546
        ],
        [
          150.99350930715858,
          -33.955445685404655
        ],
        [
          150.99320998120672,
          -33.95540765137669
        ],
        [
          150.99325618223526,
          -33.955143545379116
        ],
        [
          150.9932330282374,
          -33.955152356377035
        ],
        [
          150.99320228124023,
          -33.955164135374275
        ],
        [
          150.9931715712431,
          -33.955175986371515
        ],
        [
          150.99314090524592,
          -33.95518789036877
        ],
        [
          150.99311028424873,
          -33.955199875366006
        ],
        [
          150.99307968125152,
          -33.95521191336326
        ],
        [
          150.9930491232543,
          -33.95522402436052
        ],
        [
          150.99301861825705,
          -33.95523618835779
        ],
        [
          150.99298814125981,
          -33.955248423355044
        ],
        [
          150.99295769026253,
          -33.95526073135232
        ],
        [
          150.99292728426525,
          -33.95527308334959
        ],
        [
          150.99289692326795,
          -33.95528551634686
        ],
        [
          150.9928665982707,
          -33.95529801234415
        ],
        [
          150.99283630027335,
          -33.95531057134143
        ],
        [
          150.99280603827603,
          -33.955323192338724
        ],
        [
          150.9927758112787,
          -33.95533588533601
        ],
        [
          150.9927456292813,
          -33.9553486413333
        ],
        [
          150.99271587828392,
          -33.955361298330644
        ],
        [
          150.9926861712865,
          -33.95537400932798
        ],
        [
          150.99265649228903,
          -33.95538679132532
        ],
        [
          150.9926268572916,
          -33.955399637322685
        ],
        [
          150.9925972582941,
          -33.95541254532003
        ],
        [
          150.99256768529662,
          -33.955425516317376
        ],
        [
          150.99253815829917,
          -33.955438541314734
        ],
        [
          150.99250865830166,
          -33.9554516463121
        ],
        [
          150.9924792023041,
          -33.955464796309464
        ],
        [
          150.9921250893809,
          -33.95527052927533
        ],
        [
          150.99197341839172,
          -33.95535278226187
        ],
        [
          150.99178637642316,
          -33.955318889244325
        ],
        [
          150.99163883844804,
          -33.95529128023048
        ],
        [
          150.99104354054325,
          -33.9552188151749
        ],
        [
          150.99091117856455,
          -33.95520196316254
        ],
        [
          150.99076416058818,
          -33.9551830491488
        ],
        [
          150.99016987568308,
          -33.95511213509332
        ],
        [
          150.99002046370722,
          -33.95509213607935
        ],
        [
          150.98987660073038,
          -33.95507324906591
        ],
        [
          150.9884290709643,
          -33.95487951093063
        ],
        [
          150.98831549696874,
          -33.95496851392074
        ],
        [
          150.98823211397445,
          -33.95501567391335
        ],
        [
          150.98795925999315,
          -33.95516996188918
        ],
        [
          150.98733977703552,
          -33.955520273834324
        ],
        [
          150.98713902904925,
          -33.955633793816546
        ],
        [
          150.98669740007946,
          -33.95588351177745
        ],
        [
          150.98657875308754,
          -33.955950670766924
        ],
        [
          150.9863511841031,
          -33.95607931274678
        ],
        [
          150.9862147441125,
          -33.956156438734695
        ],
        [
          150.98607829412182,
          -33.95623357372262
        ],
        [
          150.98594185313115,
          -33.95631069071053
        ],
        [
          150.9858054121405,
          -33.95638781669845
        ],
        [
          150.98566896314986,
          -33.95646495168637
        ],
        [
          150.98553252215916,
          -33.95654207767428
        ],
        [
          150.98539608116852,
          -33.9566192036622
        ],
        [
          150.98525963217784,
          -33.956696329650114
        ],
        [
          150.9850095102548,
          -33.95638886562483
        ],
        [
          150.98453409634462,
          -33.956227522579724
        ],
        [
          150.98450535735475,
          -33.95618231757675
        ],
        [
          150.9842760143842,
          -33.95620886855572
        ],
        [
          150.98417565336376,
          -33.95647060754827
        ],
        [
          150.98360370729026,
          -33.95763950150355
        ],
        [
          150.98357256629237,
          -33.957657322500786
        ],
        [
          150.98338227830524,
          -33.95776620748395
        ],
        [
          150.98319200031807,
          -33.957875093467116
        ],
        [
          150.9830696773263,
          -33.95794509245628
        ],
        [
          150.9829473553346,
          -33.95801509244546
        ],
        [
          150.98275707734743,
          -33.95812397842862
        ],
        [
          150.98263457535575,
          -33.95819406741778
        ],
        [
          150.98257115536,
          -33.95823036241216
        ],
        [
          150.9819620254705,
          -33.95805847835463
        ],
        [
          150.98206135547758,
          -33.95789805836269
        ],
        [
          150.98218015548179,
          -33.957738168372565
        ],
        [
          150.9822975564858,
          -33.957581433382316
        ],
        [
          150.98241664348922,
          -33.95742703739226
        ],
        [
          150.98250880149075,
          -33.95731639539999
        ],
        [
          150.98260468949127,
          -33.957208639408115
        ],
        [
          150.98270115049186,
          -33.95710047941628
        ],
        [
          150.98279443849324,
          -33.95698894042413
        ],
        [
          150.98287518649698,
          -33.9568737714308
        ],
        [
          150.98298000250466,
          -33.9567032144393
        ],
        [
          150.98308690651402,
          -33.95651731944789
        ],
        [
          150.98317643852633,
          -33.95632849245485
        ],
        [
          150.98323460654268,
          -33.95614303745893
        ],
        [
          150.98325931056388,
          -33.95595713345992
        ],
        [
          150.98323889958894,
          -33.95579082445686
        ],
        [
          150.98318856761915,
          -33.955618500451
        ],
        [
          150.98311507165243,
          -33.95544814944303
        ],
        [
          150.9830272066865,
          -33.955286941433755
        ],
        [
          150.9829314897196,
          -33.95514187742389
        ],
        [
          150.9828290847483,
          -33.95503690841368
        ],
        [
          150.98267752178873,
          -33.95489697239868
        ],
        [
          150.98250932183075,
          -33.954762969382195
        ],
        [
          150.98233693587167,
          -33.9546418753654
        ],
        [
          150.98217022391017,
          -33.95453297134921
        ],
        [
          150.9819606549577,
          -33.95440204332891
        ],
        [
          150.98174352000493,
          -33.95428189030799
        ],
        [
          150.98151965405222,
          -33.95416846928649
        ],
        [
          150.98129230109961,
          -33.954057674264696
        ],
        [
          150.9810661931471,
          -33.953945400243
        ],
        [
          150.9809073511811,
          -33.9538617582277
        ],
        [
          150.98074909221523,
          -33.953776134212475
        ],
        [
          150.9805911472491,
          -33.953692401197294
        ],
        [
          150.98075095734143,
          -33.95282656120601
        ],
        [
          150.98094469543167,
          -33.95193980021774
        ],
        [
          150.98098913045237,
          -33.95173638022042
        ],
        [
          150.98155058036176,
          -33.95181092427286
        ],
        [
          150.98159773036687,
          -33.9517215802766
        ],
        [
          150.98164826037237,
          -33.95162583628061
        ],
        [
          150.98147801642813,
          -33.951390801263194
        ],
        [
          150.98135622347965,
          -33.951135435250166
        ],
        [
          150.98130769251088,
          -33.950953376244385
        ],
        [
          150.98128480752555,
          -33.950867636241675
        ],
        [
          150.98126555256457,
          -33.950595498237995
        ],
        [
          150.98129896159662,
          -33.95031872723914
        ],
        [
          150.98133980161566,
          -33.95013180124162
        ],
        [
          150.9815296677074,
          -33.94923815525293
        ],
        [
          150.98172551280294,
          -33.948309325264546
        ],
        [
          150.98174420281208,
          -33.94822061726565
        ],
        [
          150.9817631698213,
          -33.94813070026678
        ],
        [
          150.98203073594345,
          -33.94692491028308
        ],
        [
          150.98218861899196,
          -33.94639039729395
        ],
        [
          150.98247097505975,
          -33.945576378314385
        ],
        [
          150.98254460507744,
          -33.945364102319694
        ],
        [
          150.98269865107557,
          -33.94521186733287
        ],
        [
          150.98289355506222,
          -33.94510172635014
        ],
        [
          150.9848845088365,
          -33.94464842753113
        ],
        [
          150.9856846787437,
          -33.94448205560399
        ],
        [
          150.98667162162658,
          -33.944296662693986
        ],
        [
          150.98794818146226,
          -33.94415338281109
        ],
        [
          150.98817955043666,
          -33.944096048832094
        ],
        [
          150.98953993326703,
          -33.9439021669566
        ],
        [
          150.99126535602917,
          -33.94382680711573
        ],
        [
          150.99260512083276,
          -33.943855716239895
        ],
        [
          150.99357814268663,
          -33.94390349433027
        ],
        [
          150.99368842667005,
          -33.943908899340514
        ],
        [
          150.9939212386351,
          -33.94392033736214
        ],
        [
          150.99411789960553,
          -33.94392999238041
        ],
        [
          150.99433748156855,
          -33.943970867401006
        ],
        [
          150.99476794950613,
          -33.94397524244088
        ],
        [
          150.9947943215023,
          -33.94397551144332
        ],
        [
          150.99504222946635,
          -33.943978030466276
        ],
        [
          150.99520410944285,
          -33.94397967048127
        ],
        [
          150.9955041163994,
          -33.94398270950905
        ],
        [
          150.9957182033683,
          -33.943984878528894
        ],
        [
          150.99590890234066,
          -33.94398681454655
        ],
        [
          150.99594327933568,
          -33.94398716454973
        ],
        [
          150.9960852333165,
          -33.94397802156279
        ],
        [
          150.996170274305,
          -33.94397252657063
        ],
        [
          150.99625530629353,
          -33.94396704057848
        ],
        [
          150.99642538027052,
          -33.943956077594144
        ],
        [
          150.99659545324758,
          -33.943945105609785
        ],
        [
          150.99676552722462,
          -33.943934142625466
        ],
        [
          150.9969356012016,
          -33.943923179641125
        ],
        [
          150.9970906691807,
          -33.9439131756554
        ],
        [
          150.99709047117543,
          -33.94395266265566
        ],
        [
          150.99725745215534,
          -33.94392359167092
        ],
        [
          150.99746722713007,
          -33.943887072690075
        ],
        [
          150.99755478811952,
          -33.94387183369807
        ],
        [
          150.99764473210868,
          -33.94385617370629
        ],
        [
          150.9978222370873,
          -33.9438252747225
        ],
        [
          150.9979105950766,
          -33.94380988373058
        ],
        [
          150.9979997420659,
          -33.94379436773872
        ],
        [
          150.99817724604452,
          -33.94376346875493
        ],
        [
          150.99835475102313,
          -33.94373256977114
        ],
        [
          150.99848084700793,
          -33.94371060778266
        ],
        [
          150.9986791399871,
          -33.94365304980061
        ],
        [
          150.99913060993975,
          -33.94352200584148
        ],
        [
          150.99946596190694,
          -33.94340671087173
        ],
        [
          150.99950644290294,
          -33.94339278987537
        ],
        [
          151.0002534298301,
          -33.94313414394269
        ],
        [
          151.00025104482899,
          -33.94314504394255
        ],
        [
          151.0002425738251,
          -33.943183713942034
        ],
        [
          151.00043909980678,
          -33.94310908895971
        ],
        [
          151.00054829979803,
          -33.94305701796946
        ],
        [
          151.00067747078768,
          -33.94299541698097
        ],
        [
          151.00117252374798,
          -33.94275990602516
        ],
        [
          151.00122413874382,
          -33.942735354029764
        ],
        [
          151.00122966074292,
          -33.942736107030285
        ],
        [
          151.00135070072307,
          -33.94275460004162
        ],
        [
          151.00125603269274,
          -33.94308395403517
        ],
        [
          151.0013221596819,
          -33.94309402104135
        ],
        [
          151.00135467167658,
          -33.9430989690444
        ],
        [
          151.00140198366884,
          -33.94310616704881
        ],
        [
          151.0014393006627,
          -33.94311185005232
        ],
        [
          151.00156900964146,
          -33.943131589064464
        ],
        [
          151.0016014686361,
          -33.9431365280675
        ],
        [
          151.00173604461403,
          -33.94315702008009
        ],
        [
          151.00176039061006,
          -33.94316072208239
        ],
        [
          151.00190307058668,
          -33.94318243309574
        ]
      ]
    ]
  }
}